[{"OBJECT_NAME":"WNISAT-1","OBJECT_ID":"2013-066H","EPOCH":"2026-04-26T09:33:26.679744","MEAN_MOTION":14.57999261,"ECCENTRICITY":0.01639692,"INCLINATION":97.7134,"RA_OF_ASC_NODE":269.2514,"ARG_OF_PERICENTER":35.4783,"MEAN_ANOMALY":325.7192,"EPHEMERIS_TYPE":0,"CLASSIFICATION_TYPE":"U","NORAD_CAT_ID":39423,"ELEMENT_SET_NO":999,"REV_AT_EPOCH":65918,"BSTAR":0.0001353186,"MEAN_MOTION_DOT":6.99e-6,"MEAN_MOTION_DDOT":0},{"OBJECT_NAME":"TRITON-1","OBJECT_ID":"2013-066M","EPOCH":"2026-04-26T19:59:50.640864","MEAN_MOTION":14.8145291,"ECCENTRICITY":0.0091534,"INCLINATION":97.8271,"RA_OF_ASC_NODE":27.8116,"ARG_OF_PERICENTER":42.451,"MEAN_ANOMALY":318.3736,"EPHEMERIS_TYPE":0,"CLASSIFICATION_TYPE":"U","NORAD_CAT_ID":39427,"ELEMENT_SET_NO":999,"REV_AT_EPOCH":66648,"BSTAR":0.00053631,"MEAN_MOTION_DOT":4.46e-5,"MEAN_MOTION_DDOT":0},{"OBJECT_NAME":"GOMX-1","OBJECT_ID":"2013-066Q","EPOCH":"2026-04-26T20:08:32.565984","MEAN_MOTION":14.69261785,"ECCENTRICITY":0.0127605,"INCLINATION":97.6529,"RA_OF_ASC_NODE":320.5357,"ARG_OF_PERICENTER":242.2211,"MEAN_ANOMALY":116.6011,"EPHEMERIS_TYPE":0,"CLASSIFICATION_TYPE":"U","NORAD_CAT_ID":39430,"ELEMENT_SET_NO":999,"REV_AT_EPOCH":66237,"BSTAR":0.00023607,"MEAN_MOTION_DOT":1.524e-5,"MEAN_MOTION_DDOT":0},{"OBJECT_NAME":"CUBEBUG-2 (LO-74)","OBJECT_ID":"2013-066AA","EPOCH":"2026-04-26T19:28:38.752032","MEAN_MOTION":14.93396714,"ECCENTRICITY":0.005739,"INCLINATION":97.8872,"RA_OF_ASC_NODE":65.6004,"ARG_OF_PERICENTER":196.1145,"MEAN_ANOMALY":163.8251,"EPHEMERIS_TYPE":0,"CLASSIFICATION_TYPE":"U","NORAD_CAT_ID":39440,"ELEMENT_SET_NO":999,"REV_AT_EPOCH":66932,"BSTAR":0.00041417,"MEAN_MOTION_DOT":4.429e-5,"MEAN_MOTION_DDOT":0},{"OBJECT_NAME":"NEE-02 KRYSAOR","OBJECT_ID":"2013-066AB","EPOCH":"2026-04-26T18:46:15.256128","MEAN_MOTION":14.86432467,"ECCENTRICITY":0.0064939,"INCLINATION":97.8867,"RA_OF_ASC_NODE":56.3801,"ARG_OF_PERICENTER":237.6988,"MEAN_ANOMALY":121.7927,"EPHEMERIS_TYPE":0,"CLASSIFICATION_TYPE":"U","NORAD_CAT_ID":39441,"ELEMENT_SET_NO":999,"REV_AT_EPOCH":66856,"BSTAR":0.00021949,"MEAN_MOTION_DOT":1.954e-5,"MEAN_MOTION_DDOT":0},{"OBJECT_NAME":"FUNCUBE-1 (AO-73)","OBJECT_ID":"2013-066AE","EPOCH":"2026-04-26T20:52:12.794592","MEAN_MOTION":15.08754845,"ECCENTRICITY":0.0037414,"INCLINATION":97.824,"RA_OF_ASC_NODE":87.2818,"ARG_OF_PERICENTER":21.1117,"MEAN_ANOMALY":339.1645,"EPHEMERIS_TYPE":0,"CLASSIFICATION_TYPE":"U","NORAD_CAT_ID":39444,"ELEMENT_SET_NO":999,"REV_AT_EPOCH":67192,"BSTAR":0.00066839,"MEAN_MOTION_DOT":0.00010608,"MEAN_MOTION_DDOT":0},{"OBJECT_NAME":"UWE-3","OBJECT_ID":"2013-066AG","EPOCH":"2026-04-26T19:23:12.433056","MEAN_MOTION":14.96591998,"ECCENTRICITY":0.0050581,"INCLINATION":97.8653,"RA_OF_ASC_NODE":72.5667,"ARG_OF_PERICENTER":129.9382,"MEAN_ANOMALY":230.6299,"EPHEMERIS_TYPE":0,"CLASSIFICATION_TYPE":"U","NORAD_CAT_ID":39446,"ELEMENT_SET_NO":999,"REV_AT_EPOCH":66989,"BSTAR":0.00036826,"MEAN_MOTION_DOT":4.242e-5,"MEAN_MOTION_DDOT":0},{"OBJECT_NAME":"BRITE-CA1 (TORONTO)","OBJECT_ID":"2014-033L","EPOCH":"2026-04-26T19:21:30.212352","MEAN_MOTION":14.7259861,"ECCENTRICITY":0.0080053,"INCLINATION":97.9658,"RA_OF_ASC_NODE":246.7073,"ARG_OF_PERICENTER":81.672,"MEAN_ANOMALY":279.3554,"EPHEMERIS_TYPE":0,"CLASSIFICATION_TYPE":"U","NORAD_CAT_ID":40020,"ELEMENT_SET_NO":999,"REV_AT_EPOCH":63465,"BSTAR":0.0001604,"MEAN_MOTION_DOT":1.021e-5,"MEAN_MOTION_DDOT":0},{"OBJECT_NAME":"DUCHIFAT-1","OBJECT_ID":"2014-033M","EPOCH":"2026-04-26T16:52:24.211200","MEAN_MOTION":15.56025427,"ECCENTRICITY":0.0004213,"INCLINATION":98.0539,"RA_OF_ASC_NODE":169.0145,"ARG_OF_PERICENTER":233.3677,"MEAN_ANOMALY":126.7189,"EPHEMERIS_TYPE":0,"CLASSIFICATION_TYPE":"U","NORAD_CAT_ID":40021,"ELEMENT_SET_NO":999,"REV_AT_EPOCH":64772,"BSTAR":0.0011952,"MEAN_MOTION_DOT":0.0008387,"MEAN_MOTION_DDOT":0},{"OBJECT_NAME":"NANOSATC-BR1","OBJECT_ID":"2014-033Q","EPOCH":"2026-04-26T14:59:27.694176","MEAN_MOTION":15.29807515,"ECCENTRICITY":0.0003687,"INCLINATION":98.0775,"RA_OF_ASC_NODE":144.5025,"ARG_OF_PERICENTER":34.2544,"MEAN_ANOMALY":325.8932,"EPHEMERIS_TYPE":0,"CLASSIFICATION_TYPE":"U","NORAD_CAT_ID":40024,"ELEMENT_SET_NO":999,"REV_AT_EPOCH":64609,"BSTAR":0.00070594,"MEAN_MOTION_DOT":0.00020332,"MEAN_MOTION_DDOT":0},{"OBJECT_NAME":"QB50P1","OBJECT_ID":"2014-033R","EPOCH":"2026-04-26T14:20:05.843904","MEAN_MOTION":15.17429808,"ECCENTRICITY":0.0010147,"INCLINATION":98.0989,"RA_OF_ASC_NODE":124.1565,"ARG_OF_PERICENTER":51.2969,"MEAN_ANOMALY":308.9169,"EPHEMERIS_TYPE":0,"CLASSIFICATION_TYPE":"U","NORAD_CAT_ID":40025,"ELEMENT_SET_NO":999,"REV_AT_EPOCH":64520,"BSTAR":0.0005198,"MEAN_MOTION_DOT":0.00010342,"MEAN_MOTION_DDOT":0},{"OBJECT_NAME":"QB50P2","OBJECT_ID":"2014-033Y","EPOCH":"2026-04-26T17:00:12.349728","MEAN_MOTION":15.14476206,"ECCENTRICITY":0.0007425,"INCLINATION":98.0753,"RA_OF_ASC_NODE":110.4152,"ARG_OF_PERICENTER":6.0485,"MEAN_ANOMALY":354.0833,"EPHEMERIS_TYPE":0,"CLASSIFICATION_TYPE":"U","NORAD_CAT_ID":40032,"ELEMENT_SET_NO":999,"REV_AT_EPOCH":64487,"BSTAR":0.00049813,"MEAN_MOTION_DOT":9.102e-5,"MEAN_MOTION_DDOT":0},{"OBJECT_NAME":"PERSEUS-M2","OBJECT_ID":"2014-033AD","EPOCH":"2026-04-26T19:24:41.222880","MEAN_MOTION":14.95345478,"ECCENTRICITY":0.0013452,"INCLINATION":97.9925,"RA_OF_ASC_NODE":66.3215,"ARG_OF_PERICENTER":107.3353,"MEAN_ANOMALY":252.934,"EPHEMERIS_TYPE":0,"CLASSIFICATION_TYPE":"U","NORAD_CAT_ID":40037,"ELEMENT_SET_NO":999,"REV_AT_EPOCH":64310,"BSTAR":0.00020291,"MEAN_MOTION_DOT":2.181e-5,"MEAN_MOTION_DDOT":0},{"OBJECT_NAME":"PERSEUS-M1","OBJECT_ID":"2014-033AF","EPOCH":"2026-04-26T18:51:26.837856","MEAN_MOTION":14.9545455,"ECCENTRICITY":0.0013145,"INCLINATION":97.9614,"RA_OF_ASC_NODE":60.092,"ARG_OF_PERICENTER":106.0427,"MEAN_ANOMALY":254.2242,"EPHEMERIS_TYPE":0,"CLASSIFICATION_TYPE":"U","NORAD_CAT_ID":40039,"ELEMENT_SET_NO":999,"REV_AT_EPOCH":64295,"BSTAR":0.00022343,"MEAN_MOTION_DOT":2.415e-5,"MEAN_MOTION_DDOT":0},{"OBJECT_NAME":"POLYITAN-1","OBJECT_ID":"2014-033AJ","EPOCH":"2026-04-26T18:58:42.229056","MEAN_MOTION":15.31477997,"ECCENTRICITY":0.0006061,"INCLINATION":98.0994,"RA_OF_ASC_NODE":138.2567,"ARG_OF_PERICENTER":341.1184,"MEAN_ANOMALY":18.9829,"EPHEMERIS_TYPE":0,"CLASSIFICATION_TYPE":"U","NORAD_CAT_ID":40042,"ELEMENT_SET_NO":999,"REV_AT_EPOCH":64572,"BSTAR":0.0007521,"MEAN_MOTION_DOT":0.00022831,"MEAN_MOTION_DDOT":0},{"OBJECT_NAME":"TIGRISAT","OBJECT_ID":"2014-033AK","EPOCH":"2026-04-26T08:50:27.796992","MEAN_MOTION":14.84936304,"ECCENTRICITY":0.00482211,"INCLINATION":97.7766,"RA_OF_ASC_NODE":267.5945,"ARG_OF_PERICENTER":243.8627,"MEAN_ANOMALY":115.7623,"EPHEMERIS_TYPE":0,"CLASSIFICATION_TYPE":"U","NORAD_CAT_ID":40043,"ELEMENT_SET_NO":999,"REV_AT_EPOCH":63793,"BSTAR":0.00026669056,"MEAN_MOTION_DOT":2.262e-5,"MEAN_MOTION_DDOT":0},{"OBJECT_NAME":"AEROCUBE 6A","OBJECT_ID":"2014-033AM","EPOCH":"2026-04-26T17:11:54.214944","MEAN_MOTION":14.97492268,"ECCENTRICITY":0.0038995,"INCLINATION":97.7185,"RA_OF_ASC_NODE":284.2491,"ARG_OF_PERICENTER":186.7181,"MEAN_ANOMALY":173.3524,"EPHEMERIS_TYPE":0,"CLASSIFICATION_TYPE":"U","NORAD_CAT_ID":40045,"ELEMENT_SET_NO":999,"REV_AT_EPOCH":63891,"BSTAR":0.0006865,"MEAN_MOTION_DOT":8.07e-5,"MEAN_MOTION_DDOT":0}]
